[{"COMMENT":"GENERATED VIA SPACETRACK.ORG API","ORIGINATOR":"18 SPCS","NORAD_CAT_ID":"43476","OBJECT_NAME":"GRACE-FO 1","OBJECT_TYPE":"PAYLOAD","CLASSIFICATION_TYPE":"U","INTLDES":"18047A","EPOCH":"2023-12-24 20:52:36","EPOCH_MICROSECONDS":"803424","MEAN_MOTION":"15.27671277","ECCENTRICITY":"0.0015172","INCLINATION":"88.9821","RA_OF_ASC_NODE":"323.1941","ARG_OF_PERICENTER":"35.1414","MEAN_ANOMALY":"325.0833","EPHEMERIS_TYPE":"0","ELEMENT_SET_NO":"999","REV_AT_EPOCH":"31109","BSTAR":"0.00020437","MEAN_MOTION_DOT":"0.0000557","MEAN_MOTION_DDOT":"0","FILE":"4144268","TLE_LINE0":"0 GRACE-FO 1","TLE_LINE1":"1 43476U 18047A   23358.86987041  .00005570  00000-0  20437-3 0  9994","TLE_LINE2":"2 43476  88.9821 323.1941 0015172  35.1414 325.0833 15.27671277311092","OBJECT_ID":"2018-047A","OBJECT_NUMBER":"43476","SEMIMAJOR_AXIS":"6860.913","PERIOD":"94.261","APOGEE":"493.187","PERIGEE":"472.368","DECAYED":"0"},{"COMMENT":"GENERATED VIA SPACETRACK.ORG API","ORIGINATOR":"18 SPCS","NORAD_CAT_ID":"43476","OBJECT_NAME":"GRACE-FO 1","OBJECT_TYPE":"PAYLOAD","CLASSIFICATION_TYPE":"U","INTLDES":"18047A","EPOCH":"2023-12-24 22:26:56","EPOCH_MICROSECONDS":"440608","MEAN_MOTION":"15.27671583","ECCENTRICITY":"0.0015164","INCLINATION":"88.9821","RA_OF_ASC_NODE":"323.1852","ARG_OF_PERICENTER":"34.9162","MEAN_ANOMALY":"325.3079","EPHEMERIS_TYPE":"0","ELEMENT_SET_NO":"999","REV_AT_EPOCH":"31110","BSTAR":"0.00020011","MEAN_MOTION_DOT":"0.00005454","MEAN_MOTION_DDOT":"0","FILE":"4144500","TLE_LINE0":"0 GRACE-FO 1","TLE_LINE1":"1 43476U 18047A   23358.93537547  .00005454  00000-0  20011-3 0  9993","TLE_LINE2":"2 43476  88.9821 323.1852 0015164  34.9162 325.3079 15.27671583311108","OBJECT_ID":"2018-047A","OBJECT_NUMBER":"43476","SEMIMAJOR_AXIS":"6860.912","PERIOD":"94.261","APOGEE":"493.181","PERIGEE":"472.373","DECAYED":"0"},{"COMMENT":"GENERATED VIA SPACETRACK.ORG API","ORIGINATOR":"18 SPCS","NORAD_CAT_ID":"43476","OBJECT_NAME":"GRACE-FO 1","OBJECT_TYPE":"PAYLOAD","CLASSIFICATION_TYPE":"U","INTLDES":"18047A","EPOCH":"2023-12-25 14:10:12","EPOCH_MICROSECONDS":"490176","MEAN_MOTION":"15.27679069","ECCENTRICITY":"0.0015041","INCLINATION":"88.9823","RA_OF_ASC_NODE":"323.0953","ARG_OF_PERICENTER":"32.7479","MEAN_ANOMALY":"327.47","EPHEMERIS_TYPE":"0","ELEMENT_SET_NO":"999","REV_AT_EPOCH":"31120","BSTAR":"0.00021186","MEAN_MOTION_DOT":"0.00005774","MEAN_MOTION_DDOT":"0","FILE":"4145093","TLE_LINE0":"0 GRACE-FO 1","TLE_LINE1":"1 43476U 18047A   23359.59042234  .00005774  00000-0  21186-3 0  9999","TLE_LINE2":"2 43476  88.9823 323.0953 0015041  32.7479 327.4700 15.27679069311204","OBJECT_ID":"2018-047A","OBJECT_NUMBER":"43476","SEMIMAJOR_AXIS":"6860.889","PERIOD":"94.261","APOGEE":"493.074","PERIGEE":"472.435","DECAYED":"0"},{"COMMENT":"GENERATED VIA SPACETRACK.ORG API","ORIGINATOR":"18 SPCS","NORAD_CAT_ID":"43476","OBJECT_NAME":"GRACE-FO 1","OBJECT_TYPE":"PAYLOAD","CLASSIFICATION_TYPE":"U","INTLDES":"18047A","EPOCH":"2023-12-25 22:01:50","EPOCH_MICROSECONDS":"423808","MEAN_MOTION":"15.27682173","ECCENTRICITY":"0.0014982","INCLINATION":"88.9824","RA_OF_ASC_NODE":"323.0504","ARG_OF_PERICENTER":"31.6312","MEAN_ANOMALY":"328.5834","EPHEMERIS_TYPE":"0","ELEMENT_SET_NO":"999","REV_AT_EPOCH":"31125","BSTAR":"0.00019971","MEAN_MOTION_DOT":"0.00005445","MEAN_MOTION_DDOT":"0","FILE":"4145360","TLE_LINE0":"0 GRACE-FO 1","TLE_LINE1":"1 43476U 18047A   23359.91794472  .00005445  00000-0  19971-3 0  9997","TLE_LINE2":"2 43476  88.9824 323.0504 0014982  31.6312 328.5834 15.27682173311259","OBJECT_ID":"2018-047A","OBJECT_NUMBER":"43476","SEMIMAJOR_AXIS":"6860.880","PERIOD":"94.260","APOGEE":"493.024","PERIGEE":"472.466","DECAYED":"0"},{"COMMENT":"GENERATED VIA SPACETRACK.ORG API","ORIGINATOR":"18 SPCS","NORAD_CAT_ID":"43476","OBJECT_NAME":"GRACE-FO 1","OBJECT_TYPE":"PAYLOAD","CLASSIFICATION_TYPE":"U","INTLDES":"18047A","EPOCH":"2023-12-26 02:44:49","EPOCH_MICROSECONDS":"144416","MEAN_MOTION":"15.27684403","ECCENTRICITY":"0.0014948","INCLINATION":"88.9824","RA_OF_ASC_NODE":"323.0234","ARG_OF_PERICENTER":"30.9664","MEAN_ANOMALY":"329.2464","EPHEMERIS_TYPE":"0","ELEMENT_SET_NO":"999","REV_AT_EPOCH":"31128","BSTAR":"0.00020358","MEAN_MOTION_DOT":"0.0000555","MEAN_MOTION_DDOT":"0","FILE":"4145423","TLE_LINE0":"0 GRACE-FO 1","TLE_LINE1":"1 43476U 18047A   23360.11445769  .00005550  00000-0  20358-3 0  9991","TLE_LINE2":"2 43476  88.9824 323.0234 0014948  30.9664 329.2464 15.27684403311281","OBJECT_ID":"2018-047A","OBJECT_NUMBER":"43476","SEMIMAJOR_AXIS":"6860.873","PERIOD":"94.260","APOGEE":"492.994","PERIGEE":"472.483","DECAYED":"0"},{"COMMENT":"GENERATED VIA SPACETRACK.ORG API","ORIGINATOR":"18 SPCS","NORAD_CAT_ID":"43476","OBJECT_NAME":"GRACE-FO 1","OBJECT_TYPE":"PAYLOAD","CLASSIFICATION_TYPE":"U","INTLDES":"18047A","EPOCH":"2023-12-26 13:45:06","EPOCH_MICROSECONDS":"71616","MEAN_MOTION":"15.27689445","ECCENTRICITY":"0.0014866","INCLINATION":"88.9826","RA_OF_ASC_NODE":"322.9606","ARG_OF_PERICENTER":"29.4036","MEAN_ANOMALY":"330.8047","EPHEMERIS_TYPE":"0","ELEMENT_SET_NO":"999","REV_AT_EPOCH":"31135","BSTAR":"0.00020131","MEAN_MOTION_DOT":"0.00005489","MEAN_MOTION_DDOT":"0","FILE":"4145944","TLE_LINE0":"0 GRACE-FO 1","TLE_LINE1":"1 43476U 18047A   23360.57298694  .00005489  00000-0  20131-3 0  9994","TLE_LINE2":"2 43476  88.9826 322.9606 0014866  29.4036 330.8047 15.27689445311353","OBJECT_ID":"2018-047A","OBJECT_NUMBER":"43476","SEMIMAJOR_AXIS":"6860.858","PERIOD":"94.260","APOGEE":"492.923","PERIGEE":"472.524","DECAYED":"0"},{"COMMENT":"GENERATED VIA SPACETRACK.ORG API","ORIGINATOR":"18 SPCS","NORAD_CAT_ID":"43476","OBJECT_NAME":"GRACE-FO 1","OBJECT_TYPE":"PAYLOAD","CLASSIFICATION_TYPE":"U","INTLDES":"18047A","EPOCH":"2023-12-26 21:36:43","EPOCH_MICROSECONDS":"789248","MEAN_MOTION":"15.27692921","ECCENTRICITY":"0.0014807","INCLINATION":"88.9827","RA_OF_ASC_NODE":"322.9157","ARG_OF_PERICENTER":"28.2446","MEAN_ANOMALY":"331.9604","EPHEMERIS_TYPE":"0","ELEMENT_SET_NO":"999","REV_AT_EPOCH":"31140","BSTAR":"0.00019476","MEAN_MOTION_DOT":"0.00005312","MEAN_MOTION_DDOT":"0","FILE":"4146233","TLE_LINE0":"0 GRACE-FO 1","TLE_LINE1":"1 43476U 18047A   23360.90050682  .00005312  00000-0  19476-3 0  9999","TLE_LINE2":"2 43476  88.9827 322.9157 0014807  28.2446 331.9604 15.27692921311402","OBJECT_ID":"2018-047A","OBJECT_NUMBER":"43476","SEMIMAJOR_AXIS":"6860.848","PERIOD":"94.260","APOGEE":"492.872","PERIGEE":"472.554","DECAYED":"0"},{"COMMENT":"GENERATED VIA SPACETRACK.ORG API","ORIGINATOR":"18 SPCS","NORAD_CAT_ID":"43476","OBJECT_NAME":"GRACE-FO 1","OBJECT_TYPE":"PAYLOAD","CLASSIFICATION_TYPE":"U","INTLDES":"18047A","EPOCH":"2023-12-27 10:11:20","EPOCH_MICROSECONDS":"25312","MEAN_MOTION":"15.27698222","ECCENTRICITY":"0.0014708","INCLINATION":"88.9829","RA_OF_ASC_NODE":"322.8438","ARG_OF_PERICENTER":"26.4536","MEAN_ANOMALY":"333.7462","EPHEMERIS_TYPE":"0","ELEMENT_SET_NO":"999","REV_AT_EPOCH":"31148","BSTAR":"0.00018814","MEAN_MOTION_DOT":"0.00005133","MEAN_MOTION_DDOT":"0","FILE":"4146538","TLE_LINE0":"0 GRACE-FO 1","TLE_LINE1":"1 43476U 18047A   23361.42453733  .00005133  00000-0  18814-3 0  9997","TLE_LINE2":"2 43476  88.9829 322.8438 0014708  26.4536 333.7462 15.27698222311485","OBJECT_ID":"2018-047A","OBJECT_NUMBER":"43476","SEMIMAJOR_AXIS":"6860.832","PERIOD":"94.259","APOGEE":"492.788","PERIGEE":"472.606","DECAYED":"0"},{"COMMENT":"GENERATED VIA SPACETRACK.ORG API","ORIGINATOR":"18 SPCS","NORAD_CAT_ID":"43476","OBJECT_NAME":"GRACE-FO 1","OBJECT_TYPE":"PAYLOAD","CLASSIFICATION_TYPE":"U","INTLDES":"18047A","EPOCH":"2023-12-27 13:19:59","EPOCH_MICROSECONDS":"52576","MEAN_MOTION":"15.27699722","ECCENTRICITY":"0.0014672","INCLINATION":"88.983","RA_OF_ASC_NODE":"322.8259","ARG_OF_PERICENTER":"26.0058","MEAN_ANOMALY":"334.1925","EPHEMERIS_TYPE":"0","ELEMENT_SET_NO":"999","REV_AT_EPOCH":"31150","BSTAR":"0.00019073","MEAN_MOTION_DOT":"0.00005203","MEAN_MOTION_DDOT":"0","FILE":"4146803","TLE_LINE0":"0 GRACE-FO 1","TLE_LINE1":"1 43476U 18047A   23361.55554459  .00005203  00000-0  19073-3 0  9994","TLE_LINE2":"2 43476  88.9830 322.8259 0014672  26.0058 334.1925 15.27699722311501","OBJECT_ID":"2018-047A","OBJECT_NUMBER":"43476","SEMIMAJOR_AXIS":"6860.828","PERIOD":"94.259","APOGEE":"492.759","PERIGEE":"472.626","DECAYED":"0"},{"COMMENT":"GENERATED VIA SPACETRACK.ORG API","ORIGINATOR":"18 SPCS","NORAD_CAT_ID":"43476","OBJECT_NAME":"GRACE-FO 1","OBJECT_TYPE":"PAYLOAD","CLASSIFICATION_TYPE":"U","INTLDES":"18047A","EPOCH":"2023-12-27 22:45:56","EPOCH_MICROSECONDS":"100672","MEAN_MOTION":"15.27702663","ECCENTRICITY":"0.0014594","INCLINATION":"88.983","RA_OF_ASC_NODE":"322.7721","ARG_OF_PERICENTER":"24.606","MEAN_ANOMALY":"335.5883","EPHEMERIS_TYPE":"0","ELEMENT_SET_NO":"999","REV_AT_EPOCH":"31156","BSTAR":"0.00017083","MEAN_MOTION_DOT":"0.00004664","MEAN_MOTION_DDOT":"0","FILE":"4147095","TLE_LINE0":"0 GRACE-FO 1","TLE_LINE1":"1 43476U 18047A   23361.94856598  .00004664  00000-0  17083-3 0  9995","TLE_LINE2":"2 43476  88.9830 322.7721 0014594  24.6060 335.5883 15.27702663311567","OBJECT_ID":"2018-047A","OBJECT_NUMBER":"43476","SEMIMAJOR_AXIS":"6860.819","PERIOD":"94.259","APOGEE":"492.697","PERIGEE":"472.671","DECAYED":"0"}]